H1 CPF 01  gfz 2022 06 19 00  6701 tandemx   
H2 1003001  6202 36605    2022 06 19 00 59 42 2022 06 24 00 00 42   120 1 1  0 0 0
H9
10 0 59751  79182.000000  0    2420731.509  -5125839.229   3905102.801
10 0 59751  79302.000000  0    2010542.862  -4697457.302   4610563.190
10 0 59751  79422.000000  0    1573500.828  -4179570.915   5234879.013
10 0 59751  79542.000000  0    1118743.915  -3580866.781   5767095.371
10 0 59751  79662.000000  0     655548.908  -2911598.427   6197887.777
10 0 59751  79782.000000  0     193141.369  -2183403.295   6519718.772
10 0 59751  79902.000000  0    -259487.120  -1409095.851   6726962.771
10 0 59751  80022.000000  0    -693752.379   -602440.298   6815999.479
10 0 59751  80142.000000  0   -1101639.284    222095.680   6785273.941
10 0 59751  80262.000000  0   -1475849.129   1049600.480   6635321.713
10 0 59751  80382.000000  0   -1809929.848   1864987.530   6368759.809
10 0 59751  80502.000000  0   -2098387.788   2653269.619   5990244.027
10 0 59751  80622.000000  0   -2336778.817   3399834.998   5506392.333
10 0 59751  80742.000000  0   -2521777.584   4090720.299   4925675.628
10 0 59751  80862.000000  0   -2651224.690   4712876.889   4258276.028
10 0 59751  80982.000000  0   -2724149.393   5254424.487   3515912.797
10 0 59751  81102.000000  0   -2740767.335   5704886.315   2711638.174
10 0 59751  81222.000000  0   -2702453.098   6055399.532   1859606.967
10 0 59751  81342.000000  0   -2611688.542   6298896.796    974824.121
10 0 59751  81462.000000  0   -2471987.264   6430254.101     72874.630
10 0 59751  81582.000000  0   -2287797.595   6446400.994   -830358.881
10 0 59751  81702.000000  0   -2064386.729   6346390.376  -1718985.970
10 0 59751  81822.000000  0   -1807706.992   6131422.160  -2577399.540
10 0 59751  81942.000000  0   -1524248.929   5804821.428  -3390554.977
10 0 59751  82062.000000  0   -1220887.285   5371977.903  -4144235.129
10 0 59751  82182.000000  0    -904722.703   4840245.263  -4825297.989
10 0 59751  82302.000000  0    -582922.808   4218804.759  -5421900.397
10 0 59751  82422.000000  0    -262566.013   3518497.048  -5923696.922
10 0 59751  82542.000000  0      49508.812   2751624.155  -6322010.001
10 0 59751  82662.000000  0     346842.757   1931727.345  -6609967.874
10 0 59751  82782.000000  0     623485.073   1073347.569  -6782612.124
10 0 59751  82902.000000  0     874107.941    191769.614  -6836974.596
10 0 59751  83022.000000  0    1094105.565   -697245.462  -6772122.613
10 0 59751  83142.000000  0    1279676.058  -1577736.006  -6589171.809
10 0 59751  83262.000000  0    1427885.450  -2433818.020  -6291268.299
10 0 59751  83382.000000  0    1536714.048  -3249964.608  -5883541.940
10 0 59751  83502.000000  0    1605083.198  -4011285.374  -5373028.729
10 0 59751  83622.000000  0    1632861.981  -4703799.133  -4768559.109
10 0 59751  83742.000000  0    1620854.684  -5314692.760  -4080616.042
10 0 59751  83862.000000  0    1570768.009  -5832565.835  -3321164.484
10 0 59751  83982.000000  0    1485157.725  -6247653.766  -2503450.796
10 0 59751  84102.000000  0    1367357.298  -6552023.338  -1641775.895
10 0 59751  84222.000000  0    1221389.293  -6739736.135   -751245.648
10 0 59751  84342.000000  0    1051859.892  -6806975.265    152497.357
10 0 59751  84462.000000  0     863841.447  -6752130.103   1053554.871
10 0 59751  84582.000000  0     662744.106  -6575838.023   1936060.675
10 0 59751  84702.000000  0     454181.075  -6280980.625   2784470.147
10 0 59751  84822.000000  0     243829.780  -5872632.606   3583843.421
10 0 59751  84942.000000  0      37292.393  -5357966.660   4320113.705
10 0 59751  85062.000000  0    -160039.449  -4746119.271   4980337.790
10 0 59751  85182.000000  0    -343112.894  -4048018.361   5552924.236
10 0 59751  85302.000000  0    -507331.700  -3276178.421   6027835.140
10 0 59751  85422.000000  0    -648661.748  -2444466.096   6396757.523
10 0 59751  85542.000000  0    -763721.934  -1567844.996   6653240.810
10 0 59751  85662.000000  0    -849858.807   -662104.441   6792803.876
10 0 59751  85782.000000  0    -905204.184    256426.437   6813009.819
10 0 59751  85902.000000  0    -928714.187   1171173.459   6713505.913
10 0 59751  86022.000000  0    -920188.333   2065616.062   6496029.205
10 0 59751  86142.000000  0    -880269.303   2923585.163   6164377.995
10 0 59751  86262.000000  0    -810423.739   3729556.116   5724349.832
10 0 59751  86382.000000  0    -712903.914   4468932.414   5183645.247
10 0 59752    102.000000  0    -590690.905   5128314.725   4551739.494
10 0 59752    222.000000  0    -447420.626   5695752.450   3839721.290
10 0 59752    342.000000  0    -287293.118   6160967.265   3060101.385
10 0 59752    462.000000  0    -114969.544   6515551.846   2226596.535
10 0 59752    582.000000  0      64544.244   6753133.327   1353882.350
10 0 59752    702.000000  0     246024.087   6869493.753    457329.352
10 0 59752    822.000000  0     424159.308   6862649.888   -447274.780
10 0 59752    942.000000  0     593687.617   6732887.837  -1344012.628
10 0 59752   1062.000000  0     749527.533   6482750.503  -2217125.848
10 0 59752   1182.000000  0     886905.943   6116980.917  -3051298.570
10 0 59752   1302.000000  0    1001478.797   5642422.809  -3831930.253
10 0 59752   1422.000000  0    1089441.512   5067880.952  -4545392.550
10 0 59752   1542.000000  0    1147626.425   4403945.187  -5179264.645
10 0 59752   1662.000000  0    1173585.132   3662783.695  -5722542.636
10 0 59752   1782.000000  0    1165653.692   2857911.354  -6165821.638
10 0 59752   1902.000000  0    1123000.012   2003936.773  -6501447.492
10 0 59752   2022.000000  0    1045652.649   1116295.847  -6723636.601
10 0 59752   2142.000000  0     934510.822    210975.191  -6828566.451
10 0 59752   2262.000000  0     791335.765   -695771.433  -6814434.129
10 0 59752   2382.000000  0     618722.883  -1587708.699  -6681482.605
10 0 59752   2502.000000  0     420056.099  -2448901.750  -6431995.901
10 0 59752   2622.000000  0     199444.653  -3263993.761  -6070266.406
10 0 59752   2742.000000  0     -38358.051  -4018477.575  -5602529.280
10 0 59752   2862.000000  0    -288050.426  -4698953.046  -5036864.709
10 0 59752   2982.000000  0    -543893.336  -5293368.513  -4383070.264
10 0 59752   3102.000000  0    -799833.907  -5791241.882  -3652502.243
10 0 59752   3222.000000  0   -1049639.704  -6183855.843  -2857887.119
10 0 59752   3342.000000  0   -1287040.501  -6464422.462  -2013106.082
10 0 59752   3462.000000  0   -1505874.737  -6628213.967  -1132954.866
10 0 59752   3582.000000  0   -1700236.643  -6672654.171   -232882.283
10 0 59752   3702.000000  0   -1864620.623  -6597367.463    671286.394
10 0 59752   3822.000000  0   -1994059.470  -6404183.840   1563635.333
10 0 59752   3942.000000  0   -2084252.375  -6097099.324   2428447.411
10 0 59752   4062.000000  0   -2131679.029  -5682192.192   3250490.266
10 0 59752   4182.000000  0   -2133696.664  -5167497.249   4015291.878
10 0 59752   4302.000000  0   -2088617.886  -4562842.542   4709399.726
10 0 59752   4422.000000  0   -1995768.094  -3879653.533   5320618.963
10 0 59752   4542.000000  0   -1855521.407  -3130727.912   5838226.686
10 0 59752   4662.000000  0   -1669312.752  -2329986.664   6253155.862
10 0 59752   4782.000000  0   -1439626.930  -1492209.935   6558147.954
10 0 59752   4902.000000  0   -1169966.243   -632760.651   6747874.476
10 0 59752   5022.000000  0    -864797.454    232699.645   6819023.627
10 0 59752   5142.000000  0    -529478.085   1088495.257   6770354.362
10 0 59752   5262.000000  0    -170162.181   1919219.939   6602717.342
10 0 59752   5382.000000  0     206312.579   2710014.109   6319040.840
10 0 59752   5502.000000  0     592554.147   3446830.594   5924282.447
10 0 59752   5622.000000  0     980759.440   4116686.369   5425347.834
10 0 59752   5742.000000  0    1362870.066   4707895.624   4830975.727
10 0 59752   5862.000000  0    1730737.701   5210280.406   4151590.271
10 0 59752   5982.000000  0    2076295.766   5615352.791   3399122.970
10 0 59752   6102.000000  0    2391735.107   5916468.212   2586806.881
10 0 59752   6222.000000  0    2669676.836   6108944.250   1728940.963
10 0 59752   6342.000000  0    2903340.782   6190138.827    840632.975
10 0 59752   6462.000000  0    3086702.149   6159486.817    -62473.793
10 0 59752   6582.000000  0    3214634.803   6018495.666   -964483.678
10 0 59752   6702.000000  0    3283037.342   5770698.885  -1849536.807
10 0 59752   6822.000000  0    3288938.153   5421569.689  -2702095.262
10 0 59752   6942.000000  0    3230577.330   4978396.230  -3507222.236
10 0 59752   7062.000000  0    3107462.315   4450121.352  -4250846.600
10 0 59752   7182.000000  0    2920397.287   3847153.716  -4920007.070
10 0 59752   7302.000000  0    2671485.862   3181154.855  -5503073.324
10 0 59752   7422.000000  0    2364108.647   2464806.885  -5989940.051
10 0 59752   7542.000000  0    2002875.201   1711566.453  -6372191.730
10 0 59752   7662.000000  0    1593552.546    935410.640  -6643235.844
10 0 59752   7782.000000  0    1142972.951    150580.021  -6798405.586
10 0 59752   7902.000000  0     658919.923   -628678.134  -6835032.795
10 0 59752   8022.000000  0     149994.965  -1388363.290  -6752487.563
10 0 59752   8142.000000  0    -374531.145  -2114965.792  -6552186.729
10 0 59752   8262.000000  0    -904882.494  -2795700.909  -6237573.834
10 0 59752   8382.000000  0   -1430955.909  -3418731.233  -5814066.458
10 0 59752   8502.000000  0   -1942508.411  -3973371.120  -5288972.150
10 0 59752   8622.000000  0   -2429353.107  -4450272.715  -4671374.801
10 0 59752   8742.000000  0   -2881560.882  -4841590.115  -3971988.928
10 0 59752   8862.000000  0   -3289662.612  -5141116.070  -3202982.987
10 0 59752   8982.000000  0   -3644847.782  -5344389.243  -2377775.193
10 0 59752   9102.000000  0   -3939155.933  -5448769.285  -1510803.500
10 0 59752   9222.000000  0   -4165655.535  -5453476.819   -617272.817
99
